[{"OBJECT_NAME":"ATLAS CENTAUR 2","OBJECT_ID":"1963-047A","EPOCH":"2026-03-23T09:38:45.622752","MEAN_MOTION":14.12117708,"ECCENTRICITY":0.0547416,"INCLINATION":30.3543,"RA_OF_ASC_NODE":119.0066,"ARG_OF_PERICENTER":201.1409,"MEAN_ANOMALY":156.5725,"EPHEMERIS_TYPE":0,"CLASSIFICATION_TYPE":"U","NORAD_CAT_ID":694,"ELEMENT_SET_NO":999,"REV_AT_EPOCH":13356,"BSTAR":0.00025254,"MEAN_MOTION_DOT":2.179e-5,"MEAN_MOTION_DDOT":0},{"OBJECT_NAME":"THOR AGENA D R/B","OBJECT_ID":"1964-002A","EPOCH":"2026-03-23T11:26:37.455360","MEAN_MOTION":14.34027183,"ECCENTRICITY":0.0032321,"INCLINATION":99.1219,"RA_OF_ASC_NODE":96.5657,"ARG_OF_PERICENTER":216.9511,"MEAN_ANOMALY":142.9445,"EPHEMERIS_TYPE":0,"CLASSIFICATION_TYPE":"U","NORAD_CAT_ID":733,"ELEMENT_SET_NO":999,"REV_AT_EPOCH":24027,"BSTAR":7.6075e-5,"MEAN_MOTION_DOT":1.65e-6,"MEAN_MOTION_DDOT":0},{"OBJECT_NAME":"SL-3 R/B","OBJECT_ID":"1964-053B","EPOCH":"2026-03-23T07:26:45.606048","MEAN_MOTION":14.61377297,"ECCENTRICITY":0.0080231,"INCLINATION":65.0761,"RA_OF_ASC_NODE":291.3042,"ARG_OF_PERICENTER":287.9349,"MEAN_ANOMALY":71.3016,"EPHEMERIS_TYPE":0,"CLASSIFICATION_TYPE":"U","NORAD_CAT_ID":877,"ELEMENT_SET_NO":999,"REV_AT_EPOCH":26878,"BSTAR":5.8155e-5,"MEAN_MOTION_DOT":1.75e-6,"MEAN_MOTION_DDOT":0},{"OBJECT_NAME":"SL-8 R/B","OBJECT_ID":"1967-045B","EPOCH":"2026-03-23T09:58:08.616000","MEAN_MOTION":14.45633622,"ECCENTRICITY":0.0064717,"INCLINATION":74.0121,"RA_OF_ASC_NODE":322.4577,"ARG_OF_PERICENTER":325.6496,"MEAN_ANOMALY":34.0485,"EPHEMERIS_TYPE":0,"CLASSIFICATION_TYPE":"U","NORAD_CAT_ID":2802,"ELEMENT_SET_NO":999,"REV_AT_EPOCH":9100,"BSTAR":9.5365e-5,"MEAN_MOTION_DOT":3.17e-6,"MEAN_MOTION_DDOT":0},{"OBJECT_NAME":"SL-8 R/B","OBJECT_ID":"1968-040B","EPOCH":"2026-03-23T13:14:36.400416","MEAN_MOTION":15.03343212,"ECCENTRICITY":0.0023492,"INCLINATION":74.0292,"RA_OF_ASC_NODE":285.366,"ARG_OF_PERICENTER":103.7378,"MEAN_ANOMALY":256.6428,"EPHEMERIS_TYPE":0,"CLASSIFICATION_TYPE":"U","NORAD_CAT_ID":3230,"ELEMENT_SET_NO":999,"REV_AT_EPOCH":9209,"BSTAR":0.00023766,"MEAN_MOTION_DOT":3.205e-5,"MEAN_MOTION_DDOT":0},{"OBJECT_NAME":"OAO 2","OBJECT_ID":"1968-110A","EPOCH":"2026-03-23T00:41:14.995392","MEAN_MOTION":14.47315207,"ECCENTRICITY":0.00061398,"INCLINATION":34.9925,"RA_OF_ASC_NODE":190.7462,"ARG_OF_PERICENTER":301.959,"MEAN_ANOMALY":58.0503,"EPHEMERIS_TYPE":0,"CLASSIFICATION_TYPE":"U","NORAD_CAT_ID":3597,"ELEMENT_SET_NO":999,"REV_AT_EPOCH":2103,"BSTAR":7.7507781e-5,"MEAN_MOTION_DOT":2.69e-6,"MEAN_MOTION_DDOT":0},{"OBJECT_NAME":"ISIS 1","OBJECT_ID":"1969-009A","EPOCH":"2026-03-23T10:30:13.708224","MEAN_MOTION":11.30417758,"ECCENTRICITY":0.1707877,"INCLINATION":88.4518,"RA_OF_ASC_NODE":153.8087,"ARG_OF_PERICENTER":61.4295,"MEAN_ANOMALY":314.791,"EPHEMERIS_TYPE":0,"CLASSIFICATION_TYPE":"U","NORAD_CAT_ID":3669,"ELEMENT_SET_NO":999,"REV_AT_EPOCH":35008,"BSTAR":7.5208e-5,"MEAN_MOTION_DOT":1.27e-6,"MEAN_MOTION_DDOT":0},{"OBJECT_NAME":"SERT 2","OBJECT_ID":"1970-009A","EPOCH":"2026-03-23T07:57:57.447360","MEAN_MOTION":13.58731041,"ECCENTRICITY":0.0005495,"INCLINATION":99.2777,"RA_OF_ASC_NODE":24.6802,"ARG_OF_PERICENTER":123.7312,"MEAN_ANOMALY":349.4034,"EPHEMERIS_TYPE":0,"CLASSIFICATION_TYPE":"U","NORAD_CAT_ID":4327,"ELEMENT_SET_NO":999,"REV_AT_EPOCH":78174,"BSTAR":7.2998e-5,"MEAN_MOTION_DOT":1.2e-7,"MEAN_MOTION_DDOT":0},{"OBJECT_NAME":"SL-3 R/B","OBJECT_ID":"1971-028B","EPOCH":"2026-03-23T11:54:08.741664","MEAN_MOTION":15.62333865,"ECCENTRICITY":0.0013889,"INCLINATION":81.2377,"RA_OF_ASC_NODE":34.9631,"ARG_OF_PERICENTER":226.6607,"MEAN_ANOMALY":133.349,"EPHEMERIS_TYPE":0,"CLASSIFICATION_TYPE":"U","NORAD_CAT_ID":5118,"ELEMENT_SET_NO":999,"REV_AT_EPOCH":99082,"BSTAR":0.00040423,"MEAN_MOTION_DOT":0.00035999,"MEAN_MOTION_DDOT":0},{"OBJECT_NAME":"ASTEX 1","OBJECT_ID":"1971-089A","EPOCH":"2026-03-23T11:29:43.708704","MEAN_MOTION":14.50783606,"ECCENTRICITY":0.0017031,"INCLINATION":92.7101,"RA_OF_ASC_NODE":156.2171,"ARG_OF_PERICENTER":44.7298,"MEAN_ANOMALY":315.5278,"EPHEMERIS_TYPE":0,"CLASSIFICATION_TYPE":"U","NORAD_CAT_ID":5560,"ELEMENT_SET_NO":999,"REV_AT_EPOCH":86430,"BSTAR":0.00011223,"MEAN_MOTION_DOT":4.41e-6,"MEAN_MOTION_DDOT":0},{"OBJECT_NAME":"SL-8 R/B","OBJECT_ID":"1971-119B","EPOCH":"2026-03-23T10:22:30.669024","MEAN_MOTION":14.38143867,"ECCENTRICITY":0.0546982,"INCLINATION":73.8861,"RA_OF_ASC_NODE":150.0274,"ARG_OF_PERICENTER":113.7586,"MEAN_ANOMALY":252.1915,"EPHEMERIS_TYPE":0,"CLASSIFICATION_TYPE":"U","NORAD_CAT_ID":5730,"ELEMENT_SET_NO":999,"REV_AT_EPOCH":65746,"BSTAR":0.00049587,"MEAN_MOTION_DOT":9.487e-5,"MEAN_MOTION_DDOT":0},{"OBJECT_NAME":"OAO 3 (COPERNICUS)","OBJECT_ID":"1972-065A","EPOCH":"2026-03-23T11:32:11.611680","MEAN_MOTION":14.60008697,"ECCENTRICITY":0.0007331,"INCLINATION":35.0048,"RA_OF_ASC_NODE":218.7408,"ARG_OF_PERICENTER":273.8316,"MEAN_ANOMALY":141.8093,"EPHEMERIS_TYPE":0,"CLASSIFICATION_TYPE":"U","NORAD_CAT_ID":6153,"ELEMENT_SET_NO":999,"REV_AT_EPOCH":84821,"BSTAR":7.9676e-5,"MEAN_MOTION_DOT":3.67e-6,"MEAN_MOTION_DDOT":0},{"OBJECT_NAME":"ATLAS CENTAUR R/B","OBJECT_ID":"1972-065B","EPOCH":"2026-03-23T11:26:44.102976","MEAN_MOTION":14.77724504,"ECCENTRICITY":0.0032967,"INCLINATION":35.0006,"RA_OF_ASC_NODE":224.9519,"ARG_OF_PERICENTER":126.7636,"MEAN_ANOMALY":233.6098,"EPHEMERIS_TYPE":0,"CLASSIFICATION_TYPE":"U","NORAD_CAT_ID":6155,"ELEMENT_SET_NO":999,"REV_AT_EPOCH":84330,"BSTAR":0.00019303,"MEAN_MOTION_DOT":1.395e-5,"MEAN_MOTION_DDOT":0},{"OBJECT_NAME":"SL-8 R/B","OBJECT_ID":"1975-112B","EPOCH":"2026-03-23T11:37:37.221312","MEAN_MOTION":14.38211607,"ECCENTRICITY":0.0014476,"INCLINATION":74.0636,"RA_OF_ASC_NODE":353.5383,"ARG_OF_PERICENTER":80.9955,"MEAN_ANOMALY":279.2836,"EPHEMERIS_TYPE":0,"CLASSIFICATION_TYPE":"U","NORAD_CAT_ID":8459,"ELEMENT_SET_NO":999,"REV_AT_EPOCH":63385,"BSTAR":9.3296e-5,"MEAN_MOTION_DOT":2.58e-6,"MEAN_MOTION_DDOT":0},{"OBJECT_NAME":"SL-3 R/B","OBJECT_ID":"1977-057B","EPOCH":"2026-03-23T12:11:48.300288","MEAN_MOTION":15.4587868,"ECCENTRICITY":0.0006478,"INCLINATION":97.5796,"RA_OF_ASC_NODE":255.0424,"ARG_OF_PERICENTER":226.1406,"MEAN_ANOMALY":133.9308,"EPHEMERIS_TYPE":0,"CLASSIFICATION_TYPE":"U","NORAD_CAT_ID":10114,"ELEMENT_SET_NO":999,"REV_AT_EPOCH":67046,"BSTAR":0.00026727,"MEAN_MOTION_DOT":0.00012903,"MEAN_MOTION_DDOT":0},{"OBJECT_NAME":"SEASAT 1","OBJECT_ID":"1978-064A","EPOCH":"2026-03-23T11:15:08.622720","MEAN_MOTION":14.46171123,"ECCENTRICITY":0.0002538,"INCLINATION":108.0083,"RA_OF_ASC_NODE":154.4123,"ARG_OF_PERICENTER":279.2929,"MEAN_ANOMALY":80.793,"EPHEMERIS_TYPE":0,"CLASSIFICATION_TYPE":"U","NORAD_CAT_ID":10967,"ELEMENT_SET_NO":999,"REV_AT_EPOCH":50850,"BSTAR":0.00011167,"MEAN_MOTION_DOT":2.62e-6,"MEAN_MOTION_DDOT":0},{"OBJECT_NAME":"SL-14 R/B","OBJECT_ID":"1979-011B","EPOCH":"2026-03-23T09:31:23.690208","MEAN_MOTION":14.91924803,"ECCENTRICITY":0.0016475,"INCLINATION":82.5205,"RA_OF_ASC_NODE":83.5598,"ARG_OF_PERICENTER":17.4986,"MEAN_ANOMALY":342.6797,"EPHEMERIS_TYPE":0,"CLASSIFICATION_TYPE":"U","NORAD_CAT_ID":11267,"ELEMENT_SET_NO":999,"REV_AT_EPOCH":53082,"BSTAR":6.2547e-5,"MEAN_MOTION_DOT":6.6e-6,"MEAN_MOTION_DDOT":0}]
