ATLAS CENTAUR 2         
1 00694U 63047A   26082.40191693  .00002179  00000+0  25254-3 0  9999
2 00694  30.3543 119.0066 0547416 201.1409 156.5725 14.12117708133567
THOR AGENA D R/B        
1 00733U 64002A   26082.47682240  .00000165  00000+0  76075-4 0  9996
2 00733  99.1219  96.5657 0032321 216.9511 142.9445 14.34027183240277
SL-3 R/B                
1 00877U 64053B   26082.31025007  .00000175  00000+0  58155-4 0  9996
2 00877  65.0761 291.3042 0080231 287.9349  71.3016 14.61377297268782
SL-8 R/B                
1 02802U 67045B   26082.41537750  .00000317  00000+0  95365-4 0  9996
2 02802  74.0121 322.4577 0064717 325.6496  34.0485 14.45633622 91009
SL-8 R/B                
1 03230U 68040B   26082.55181019  .00003205  00000+0  23766-3 0  9990
2 03230  74.0292 285.3660 0023492 103.7378 256.6428 15.03343212 92090
OAO 2                   
1 03597U 68110A   26082.02864578  .00000269  00000+0  77508-4 0  9995
2 03597  34.9925 190.7462 0006139 301.9590  58.0503 14.47315207 21034
ISIS 1                  
1 03669U 69009A   26082.43765866  .00000127  00000+0  75208-4 0  9996
2 03669  88.4518 153.8087 1707877  61.4295 314.7910 11.30417758350084
SERT 2                  
1 04327U 70009A   26082.33191490  .00000012  00000+0  72998-4 0  9991
2 04327  99.2777  24.6802 0005495 123.7312 349.4034 13.58731041781740
SL-3 R/B                
1 05118U 71028B   26082.49593451  .00035999  00000+0  40423-3 0  9991
2 05118  81.2377  34.9631 0013889 226.6607 133.3490 15.62333865990822
ASTEX 1                 
1 05560U 71089A   26082.47897811  .00000441  00000+0  11223-3 0  9994
2 05560  92.7101 156.2171 0017031  44.7298 315.5278 14.50783606864309
SL-8 R/B                
1 05730U 71119B   26082.43229941  .00009487  00000+0  49587-3 0  9999
2 05730  73.8861 150.0274 0546982 113.7586 252.1915 14.38143867657462
OAO 3 (COPERNICUS)      
1 06153U 72065A   26082.48068995  .00000367  00000+0  79676-4 0  9996
2 06153  35.0048 218.7408 0007331 273.8316 141.8093 14.60008697848211
ATLAS CENTAUR R/B       
1 06155U 72065B   26082.47689934  .00001395  00000+0  19303-3 0  9991
2 06155  35.0006 224.9519 0032967 126.7636 233.6098 14.77724504843303
SL-8 R/B                
1 08459U 75112B   26082.48445858  .00000258  00000+0  93296-4 0  9993
2 08459  74.0636 353.5383 0014476  80.9955 279.2836 14.38211607633857
SL-3 R/B                
1 10114U 77057B   26082.50819792  .00012903  00000+0  26727-3 0  9993
2 10114  97.5796 255.0424 0006478 226.1406 133.9308 15.45878680670462
SEASAT 1                
1 10967U 78064A   26082.46884980  .00000262  00000+0  11167-3 0  9991
2 10967 108.0083 154.4123 0002538 279.2929  80.7930 14.46171123508508
SL-14 R/B               
1 11267U 79011B   26082.39680197  .00000660  00000+0  62547-4 0  9995
2 11267  82.5205  83.5598 0016475  17.4986 342.6797 14.91924803530824
